
# Worst residual: 84.25 km
# MJD 60339.000000 (2024 Jan 30  0:00)
A10ZsPt = A10Zv6L
1 79949U 23999ZYY 24030.49919926  .00000000  00000-0  00000-0 0 22566
2 79949 038.5995 358.7779 6958009 286.4258 168.1341 01.02428200    00

# Worst residual: 64.22 km
# MJD 60340.000000 (2024 Jan 31  0:00)
A10ZsPt = A10Zv6L
1 79949U 23999ZYY 24031.49919926  .00000000  00000-0  00000-0 0 22567
2 79949 038.6194 358.6281 6933998 286.9479 176.5127 01.02404163    06

# Worst residual: 50.26 km
# MJD 60341.000000 (2024 Feb  1  0:00)
A10ZsPt = A10Zv6L
1 79949U 23999ZYY 24032.49919926  .00000000  00000-0  00000-0 0 22568
2 79949 038.6409 358.4733 6908478 287.4651 184.9144 01.02376955    07

# Worst residual: 54.04 km
# MJD 60342.000000 (2024 Feb  2  0:00)
A10ZsPt = A10Zv6L
1 79949U 23999ZYY 24033.49919926  .00000000  00000-0  00000-0 0 22569
2 79949 038.6604 358.3206 6883563 287.9782 193.3184 01.02351874    06

# Worst residual: 60.46 km
# MJD 60343.000000 (2024 Feb  3  0:00)
A10ZsPt = A10Zv6L
1 79949U 23999ZYY 24034.49919926  .00000000  00000-0  00000-0 0 22560
2 79949 038.6804 358.1950 6858727 288.4692 201.7279 01.02337061    03

# Worst residual: 61.54 km
# MJD 60344.000000 (2024 Feb  4  0:00)
A10ZsPt = A10Zv6L
1 79949U 23999ZYY 24035.49919926  .00000000  00000-0  00000-0 0 22561
2 79949 038.7020 358.0677 6833856 288.9626 210.1356 01.02328491    04

# Worst residual: 58.63 km
# MJD 60345.000000 (2024 Feb  5  0:00)
A10ZsPt = A10Zv6L
1 79949U 23999ZYY 24036.49919926  .00000000  00000-0  00000-0 0 22562
2 79949 038.7184 357.9291 6809333 289.4613 218.5535 01.02322801    00

# Worst residual: 50.23 km
# MJD 60346.000000 (2024 Feb  6  0:00)
A10ZsPt = A10Zv6L
1 79949U 23999ZYY 24037.49919926  .00000000  00000-0  00000-0 0 22563
2 79949 038.7411 357.7959 6785078 289.9590 226.9631 01.02329210    01

# Worst residual: 44.33 km
# MJD 60347.000000 (2024 Feb  7  0:00)
A10ZsPt = A10Zv6L
1 79949U 23999ZYY 24038.49919926  .00000000  00000-0  00000-0 0 22564
2 79949 038.7570 357.6763 6760064 290.4567 235.3652 01.02335778    01

# Worst residual: 61.12 km
# MJD 60348.000000 (2024 Feb  8  0:00)
A10ZsPt = A10Zv6L
1 79949U 23999ZYY 24039.49919926  .00000000  00000-0  00000-0 0 22565
2 79949 038.7786 357.5553 6734699 290.9465 243.7690 01.02337554    02

# Worst residual: 75.62 km
# MJD 60349.000000 (2024 Feb  9  0:00)
A10ZsPt = A10Zv6L
1 79949U 23999ZYY 24040.49919926  .00000000  00000-0  00000-0 0 22567
2 79949 038.8008 357.4368 6708721 291.4458 252.1629 01.02343752    01

# Worst residual: 92.22 km
# MJD 60350.000000 (2024 Feb 10  0:00)
A10ZsPt = A10Zv6L
1 79949U 23999ZYY 24041.49919926  .00000000  00000-0  00000-0 0 22568
2 79949 038.8134 357.3350 6681483 291.9289 260.5712 01.02350679    05

# Worst residual: 99.06 km
# MJD 60351.000000 (2024 Feb 11  0:00)
A10ZsPt = A10Zv6L
1 79949U 23999ZYY 24042.49919926  .00000000  00000-0  00000-0 0 22569
2 79949 038.8313 357.2181 6654673 292.4222 268.9825 01.02360747    03

# Worst residual: 100.44 km
# MJD 60352.000000 (2024 Feb 12  0:00)
A10ZsPt = A10Zv6L
1 79949U 23999ZYY 24043.49919926  .00000000  00000-0  00000-0 0 22560
2 79949 038.8573 357.1102 6626584 292.9186 277.3763 01.02381941    01

# Worst residual: 99.53 km
# MJD 60353.000000 (2024 Feb 13  0:00)
A10ZsPt = A10Zv6L
1 79949U 23999ZYY 24044.49919926  .00000000  00000-0  00000-0 0 22561
2 79949 038.8761 357.0003 6598572 293.4121 285.7832 01.02396930    03

# Worst residual: 105.44 km
# MJD 60354.000000 (2024 Feb 14  0:00)
A10ZsPt = A10Zv6L
1 79949U 23999ZYY 24045.49919926  .00000000  00000-0  00000-0 0 22562
2 79949 038.8799 356.9280 6568246 293.8727 294.1976 01.02417248    09

# Worst residual: 102.39 km
# MJD 60355.000000 (2024 Feb 15  0:00)
A10ZsPt = A10Zv6L
1 79949U 23999ZYY 24046.49919926  .00000000  00000-0  00000-0 0 22563
2 79949 038.9026 356.8218 6538775 294.3532 302.6077 01.02424050    03

# Worst residual: 90.90 km
# MJD 60356.000000 (2024 Feb 16  0:00)
A10ZsPt = A10Zv6L
1 79949U 23999ZYY 24047.49919926  .00000000  00000-0  00000-0 0 22564
2 79949 038.9165 356.7203 6509668 294.8319 310.9483 01.02429544    03

# Worst residual: 78.34 km
# MJD 60357.000000 (2024 Feb 17  0:00)
A10ZsPt = A10Zv6L
1 79949U 23999ZYY 24048.49919926  .00000000  00000-0  00000-0 0 22565
2 79949 038.9292 356.6574 6479623 295.2836 319.2084 01.02425233    00

# Worst residual: 80.96 km
# MJD 60358.000000 (2024 Feb 18  0:00)
A10ZsPt = A10Zv6L
1 79949U 23999ZYY 24049.49919926  .00000000  00000-0  00000-0 0 22566
2 79949 038.9427 356.5675 6448772 295.7451 327.3598 01.02414945    08

# Worst residual: 82.68 km
# MJD 60359.000000 (2024 Feb 19  0:00)
A10ZsPt = A10Zv6L
1 79949U 23999ZYY 24050.49919926  .00000000  00000-0  00000-0 0 22568
2 79949 038.9549 356.4887 6417415 296.2039 335.3904 01.02403583    01

# Worst residual: 81.83 km
# MJD 60360.000000 (2024 Feb 20  0:00)
A10ZsPt = A10Zv6L
1 79949U 23999ZYY 24051.49919926  .00000000  00000-0  00000-0 0 22569
2 79949 038.9653 356.4058 6385204 296.6549 343.3048 01.02391420    01

# Worst residual: 84.07 km
# MJD 60361.000000 (2024 Feb 21  0:00)
A10ZsPt = A10Zv6L
1 79949U 23999ZYY 24052.49919926  .00000000  00000-0  00000-0 0 22560
2 79949 038.9775 356.3420 6352857 297.1058 351.0620 01.02370632    01

# Worst residual: 80.23 km
# MJD 60362.000000 (2024 Feb 22  0:00)
A10ZsPt = A10Zv6L
1 79949U 23999ZYY 24053.49919926  .00000000  00000-0  00000-0 0 22561
2 79949 038.9869 356.2775 6320210 297.5514 358.6775 01.02341228    09

# Worst residual: 78.30 km
# MJD 60363.000000 (2024 Feb 23  0:00)
A10ZsPt = A10Zv6L
1 79949U 23999ZYY 24054.49919926  .00000000  00000-0  00000-0 0 22562
2 79949 038.9936 356.2160 6286249 297.9921 006.1442 01.02320388    01

# Worst residual: 75.95 km
# MJD 60364.000000 (2024 Feb 24  0:00)
A10ZsPt = A10Zv6L
1 79949U 23999ZYY 24055.49919926  .00000000  00000-0  00000-0 0 22563
2 79949 039.0077 356.1434 6250553 298.4249 013.4576 01.02302209    01

# Worst residual: 71.70 km
# MJD 60365.000000 (2024 Feb 25  0:00)
A10ZsPt = A10Zv6L
1 79949U 23999ZYY 24056.49919926  .00000000  00000-0  00000-0 0 22564
2 79949 039.0128 356.0937 6215934 298.8493 020.6123 01.02265660    01

# Worst residual: 66.29 km
# MJD 60366.000000 (2024 Feb 26  0:00)
A10ZsPt = A10Zv6L
1 79949U 23999ZYY 24057.49919926  .00000000  00000-0  00000-0 0 22565
2 79949 039.0196 356.0398 6180758 299.2696 027.6027 01.02230386    09

# Worst residual: 65.29 km
# MJD 60367.000000 (2024 Feb 27  0:00)
A10ZsPt = A10Zv6L
1 79949U 23999ZYY 24058.49919926  .00000000  00000-0  00000-0 0 22566
2 79949 039.0257 355.9890 6145461 299.6877 034.4192 01.02191562    00

# Worst residual: 70.08 km
# MJD 60368.000000 (2024 Feb 28  0:00)
A10ZsPt = A10Zv6L
1 79949U 23999ZYY 24059.49919926  .00000000  00000-0  00000-0 0 22567
2 79949 039.0312 355.9407 6109841 300.1055 041.0561 01.02149325    08
